INTELSAT 902 (IS-902)   
1 26900U 01039A   26155.19862758 -.00000273  00000+0  00000+0 0  9996
2 26900   6.0857  71.9392 0004269 358.5031 203.6038  1.00271704 90566
INTELSAT 904 (IS-904)   
1 27380U 02007A   26155.05981179 -.00000216  00000+0  00000+0 0  9996
2 27380   6.8873  69.3413 0007283 358.6598 174.5572  1.00271044 51639
DIRECTV 5 (TEMPO 1)     
1 27426U 02023A   26154.62667259 -.00000047  00000+0  00000+0 0  9999
2 27426   4.8432  75.4778 0003563   3.0335 289.0745  1.00271884 87981
INTELSAT 905 (IS-905)   
1 27438U 02027A   26155.25284616  .00000104  00000+0  00000+0 0  9991
2 27438   6.7210  69.9550 0004242  11.1085 125.4484  1.00272206 51233
GALAXY 3C (G-3C)        
1 27445U 02030A   26155.34060669 -.00000141  00000+0  00000+0 0  9995
2 27445   3.6974  78.1472 0001980  28.6864 173.7216  1.00271893 46361
INTELSAT 906 (IS-906)   
1 27513U 02041A   26154.95669883  .00000023  00000+0  00000+0 0  9990
2 27513   5.7702  73.0820 0004745 356.2915 231.5963  1.00271308 86894
GALAXY 13 (HORIZONS-1)  
1 27954U 03044A   26155.32503002  .00000144  00000+0  00000+0 0  9999
2 27954   1.3870  84.0130 0002058 341.9394 153.8108  1.00271435 46449
INTELSAT 10-02          
1 28358U 04022A   26155.06569512  .00000001  00000+0  00000+0 0  9996
2 28358   0.0110 351.1008 0000276 123.8111 160.2515  1.00270913 80427
DIRECTV 8               
1 28659U 05019A   26155.24280872  .00000013  00000+0  00000+0 0  9999
2 28659   0.0022   4.3650 0003158  74.6741 142.0217  1.00271287 76941
GALAXY 28 (G-28)        
1 28702U 05022A   26155.13193449 -.00000189  00000+0  00000+0 0  9998
2 28702   3.2649  79.0912 0003233   0.1428 193.7437  1.00269229 51842
GALAXY 16 (G-16)        
1 29236U 06023A   26155.34279934 -.00000115  00000+0  00000+0 0  9999
2 29236   0.0279 203.2944 0003176 240.3993 193.5117  1.00273848 72844
DIRECTV 9S              
1 29494U 06043A   26155.33673670 -.00000102  00000+0  00000+0 0  9997
2 29494   2.3874  81.0551 0005209   3.3871 188.3822  1.00272011 51251
GALAXY 17 (G-17)        
1 31307U 07016B   26155.19176041 -.00000195  00000+0  00000+0 0  9990
2 31307   2.9394  80.0630 0005004  12.4837 144.1277  1.00270763 69674
INTELSAT 11 (IS-11)     
1 32253U 07044B   26155.30837304 -.00000131  00000+0  00000+0 0  9991
2 32253   3.5318  78.8247 0001635  74.0597  33.2654  0.99053530 68326
HORIZONS-2              
1 32388U 07063B   26155.17669625 -.00000242  00000+0  00000+0 0  9998
2 32388   2.5685  80.7829 0004229 351.2890 170.3820  1.00273999 67689
DIRECTV 11              
1 32729U 08013A   26154.97511619 -.00000114  00000+0  00000+0 0  9997
2 32729   0.0170 148.4619 0000515 243.0214 112.8090  1.00271261 45463
GALAXY 18 (G-18)        
1 32951U 08024A   26155.61875939  .00000037  00000+0  00000+0 0  9999
2 32951   0.0143  21.2151 0003313  61.8308 269.7631  1.00271705 45723
INTELSAT 25 (IS-25)     
1 33153U 08034A   26155.64260190 -.00000162  00000+0  00000+0 0  9995
2 33153   2.6760  80.4577 0001754  11.8337 209.8286  0.99015353 65561
GALAXY 19 (G-19)        
1 33376U 08045A   26155.60810454 -.00000127  00000+0  00000+0 0  9995
2 33376   0.0149  44.3017 0003506  47.5036 283.1670  1.00270589 64779
FM-5                    
1 35493U 09034A   26155.61929390 -.00000188  00000+0  00000+0 0  9994
2 35493   0.0119 298.9018 0000543  29.0217  61.9214  1.00269966 46515
INTELSAT 14 (IS-14)     
1 36097U 09064A   26155.48489147 -.00000261  00000+0  00000+0 0  9996
2 36097   0.0103 305.3905 0002808 140.3067 296.8027  1.00270463 60479
INTELSAT 15 (IS-15)     
1 36106U 09067A   26155.71989234 -.00000173  00000+0  00000+0 0  9990
2 36106   0.0139 316.4025 0002466 118.9024 162.1690  1.00272677 41108
DIRECTV 12              
1 36131U 09075A   26155.61030990 -.00000092  00000+0  00000+0 0  9992
2 36131   0.0403 147.4672 0000487 266.6647 315.9192  1.00273044 46427
INTELSAT 16 (IS-16)     
1 36397U 10006A   26155.55003619 -.00000233  00000+0  00000+0 0  9990
2 36397   0.0131  25.5548 0002291  59.4368 289.8353  1.00272170 59522
XM-5                    
1 37185U 10053A   26155.39972941 -.00000011  00000+0  00000+0 0  9997
2 37185   0.0616 274.3576 0002924 276.0478  91.1514  1.00272037 57357
INTELSAT 17 (IS-17)     
1 37238U 10065B   26155.77586189  .00000011  00000+0  00000+0 0  9995
2 37238   0.0079 287.7372 0002394 150.0676 160.7129  1.00271845 53125
INTELSAT 28 (IS-28)     
1 37392U 11016A   26155.63012728 -.00000213  00000+0  00000+0 0  9996
2 37392   1.7734  82.7769 0004072 350.7913  14.6762  1.00270176 53163
INTELSAT 18 (IS-18)     
1 37834U 11056A   26155.75494183  .00000065  00000+0  00000+0 0  9997
2 37834   0.0123 293.9334 0002262 151.7198 259.3248  1.00271654 53681
INTELSAT 22 (IS-22)     
1 38098U 12011A   26155.36538861 -.00000047  00000+0  00000+0 0  9992
2 38098   0.0096  35.5561 0002040  37.8633  23.0227  1.00271937  7065
INTELSAT 19 (IS-19)     
1 38356U 12030A   26155.69786648 -.00000044  00000+0  00000+0 0  9991
2 38356   0.0185 340.3873 0003210  99.9610 230.0316  1.00272140 50321
INTELSAT 20 (IS-20)     
1 38740U 12043A   26155.77546961 -.00000012  00000+0  00000+0 0  9998
2 38740   0.0100  83.6685 0001640  93.1307  64.0831  1.00271680 50625
